start=new Date('2023-01-17T00:00:00.000Z').valueOf();
sats=[{"COUNTRY_CODE":"US","FILE":"3749606","GP_ID":"223198675","LAUNCH_DATE":"2021-03-04","APOAPSIS":"548.178","SEMIMAJOR_AXIS":"6925.291","RA_OF_ASC_NODE":"341.9211","MEAN_ELEMENT_THEORY":"SGP4","PERIOD":"95.591","MEAN_MOTION_DDOT":"0.0000000000000","TLE_LINE2":"2 47739  53.0537 341.9211 0001475  75.6848 284.4304 15.06418663104483","ARG_OF_PERICENTER":"75.6848","INCLINATION":"53.0537","CENTER_NAME":"EARTH","REF_FRAME":"TEME","EPHEMERIS_TYPE":"0","SITE":"AFETR","RCS_SIZE":"LARGE","MEAN_MOTION":"15.06418663","NORAD_CAT_ID":"47739","PERIAPSIS":"546.135","OBJECT_ID":"2021-017T","OBJECT_NAME":"STARLINK-2150","EPOCH":"2023-01-16T07:21:06.110208","MEAN_ANOMALY":"284.4304","CLASSIFICATION_TYPE":"U","ECCENTRICITY":"0.00014750","REV_AT_EPOCH":"10448","TIME_SYSTEM":"UTC","DECAY_DATE":null,"OBJECT_TYPE":"PAYLOAD","BSTAR":"0.00045818000000","TLE_LINE1":"1 47739U 21017T   23016.30632072  .00006553  00000-0  45818-3 0  9994","MEAN_MOTION_DOT":"0.00006553","ELEMENT_SET_NO":"999"},{"MEAN_MOTION":"15.06385530","NORAD_CAT_ID":"47740","SITE":"AFETR","RCS_SIZE":"LARGE","EPHEMERIS_TYPE":"0","REF_FRAME":"TEME","CENTER_NAME":"EARTH","ARG_OF_PERICENTER":"106.8505","TLE_LINE2":"2 47740  53.0498 324.3283 0001923 106.8505 253.2695 15.06385530104775","MEAN_MOTION_DDOT":"0.0000000000000","INCLINATION":"53.0498","MEAN_ELEMENT_THEORY":"SGP4","RA_OF_ASC_NODE":"324.3283","PERIOD":"95.593","SEMIMAJOR_AXIS":"6925.393","APOAPSIS":"548.590","GP_ID":"223251749","FILE":"3750956","COUNTRY_CODE":"US","LAUNCH_DATE":"2021-03-04","ELEMENT_SET_NO":"999","MEAN_MOTION_DOT":"-0.00003508","TLE_LINE1":"1 47740U 21017U   23016.88457077 -.00003508  00000-0 -21676-3 0  9994","BSTAR":"-0.00021676000000","TIME_SYSTEM":"UTC","DECAY_DATE":null,"OBJECT_TYPE":"PAYLOAD","ECCENTRICITY":"0.00019230","REV_AT_EPOCH":"10477","CLASSIFICATION_TYPE":"U","EPOCH":"2023-01-16T21:13:46.914528","MEAN_ANOMALY":"253.2695","OBJECT_NAME":"STARLINK-2152","PERIAPSIS":"545.926","OBJECT_ID":"2021-017U"},{"ELEMENT_SET_NO":"999","TLE_LINE1":"1 47741U 21017V   23016.56756703  .00004218  00000-0  30182-3 0  9997","MEAN_MOTION_DOT":"0.00004218","BSTAR":"0.00030182000000","TIME_SYSTEM":"UTC","DECAY_DATE":null,"OBJECT_TYPE":"PAYLOAD","ECCENTRICITY":"0.00018370","REV_AT_EPOCH":"10468","CLASSIFICATION_TYPE":"U","MEAN_ANOMALY":"295.2673","EPOCH":"2023-01-16T13:37:17.791392","OBJECT_NAME":"STARLINK-2154","PERIAPSIS":"545.900","OBJECT_ID":"2021-017V","MEAN_MOTION":"15.06413471","NORAD_CAT_ID":"47741","SITE":"AFETR","RCS_SIZE":"LARGE","EPHEMERIS_TYPE":"0","REF_FRAME":"TEME","CENTER_NAME":"EARTH","MEAN_MOTION_DDOT":"0.0000000000000","TLE_LINE2":"2 47741  53.0543 325.7443 0001837  64.8506 295.2673 15.06413471104686","ARG_OF_PERICENTER":"64.8506","INCLINATION":"53.0543","MEAN_ELEMENT_THEORY":"SGP4","RA_OF_ASC_NODE":"325.7443","PERIOD":"95.591","SEMIMAJOR_AXIS":"6925.307","APOAPSIS":"548.444","FILE":"3750956","GP_ID":"223249997","COUNTRY_CODE":"US","LAUNCH_DATE":"2021-03-04"},{"CLASSIFICATION_TYPE":"U","ECCENTRICITY":"0.00011010","REV_AT_EPOCH":"10491","PERIAPSIS":"546.497","OBJECT_ID":"2021-017W","OBJECT_NAME":"STARLINK-2156","EPOCH":"2023-01-16T20:16:44.071392","MEAN_ANOMALY":"301.7682","MEAN_MOTION_DOT":"-0.00001674","TLE_LINE1":"1 47742U 21017W   23016.84495453 -.00001674  00000-0 -93561-4 0  9997","ELEMENT_SET_NO":"999","TIME_SYSTEM":"UTC","DECAY_DATE":null,"OBJECT_TYPE":"PAYLOAD","BSTAR":"-0.00009356100000","RA_OF_ASC_NODE":"314.5020","MEAN_ELEMENT_THEORY":"SGP4","PERIOD":"95.593","ARG_OF_PERICENTER":"58.3415","TLE_LINE2":"2 47742  53.0519 314.5020 0001101  58.3415 301.7682 15.06385062104911","MEAN_MOTION_DDOT":"0.0000000000000","INCLINATION":"53.0519","COUNTRY_CODE":"US","FILE":"3750956","GP_ID":"223250247","LAUNCH_DATE":"2021-03-04","APOAPSIS":"548.022","SEMIMAJOR_AXIS":"6925.394","SITE":"AFETR","RCS_SIZE":"LARGE","MEAN_MOTION":"15.06385062","NORAD_CAT_ID":"47742","CENTER_NAME":"EARTH","REF_FRAME":"TEME","EPHEMERIS_TYPE":"0"},{"APOAPSIS":"548.957","SEMIMAJOR_AXIS":"6925.410","LAUNCH_DATE":"2021-03-04","COUNTRY_CODE":"US","GP_ID":"223251495","FILE":"3750956","TLE_LINE2":"2 47743  53.0572 314.3855 0002429  43.5731 316.5450 15.06380005104892","MEAN_MOTION_DDOT":"0.0000000000000","ARG_OF_PERICENTER":"43.5731","INCLINATION":"53.0572","PERIOD":"95.593","RA_OF_ASC_NODE":"314.3855","MEAN_ELEMENT_THEORY":"SGP4","EPHEMERIS_TYPE":"0","CENTER_NAME":"EARTH","REF_FRAME":"TEME","NORAD_CAT_ID":"47743","MEAN_MOTION":"15.06380005","RCS_SIZE":"LARGE","SITE":"AFETR","OBJECT_NAME":"STARLINK-2157","MEAN_ANOMALY":"316.5450","EPOCH":"2023-01-16T20:53:52.422432","PERIAPSIS":"545.593","OBJECT_ID":"2021-017X","ECCENTRICITY":"0.00024290","REV_AT_EPOCH":"10489","CLASSIFICATION_TYPE":"U","BSTAR":"-0.00008667500000","DECAY_DATE":null,"OBJECT_TYPE":"PAYLOAD","TIME_SYSTEM":"UTC","TLE_LINE1":"1 47743U 21017X   23016.87074563 -.00001572  00000-0 -86675-4 0  9991","MEAN_MOTION_DOT":"-0.00001572","ELEMENT_SET_NO":"999"},{"EPHEMERIS_TYPE":"0","CENTER_NAME":"EARTH","REF_FRAME":"TEME","MEAN_MOTION":"15.06383051","NORAD_CAT_ID":"47744","SITE":"AFETR","RCS_SIZE":"LARGE","APOAPSIS":"548.423","SEMIMAJOR_AXIS":"6925.401","COUNTRY_CODE":"US","FILE":"3750956","GP_ID":"223251249","LAUNCH_DATE":"2021-03-04","ARG_OF_PERICENTER":"73.3990","TLE_LINE2":"2 47744  53.0533 314.4489 0001672  73.3990 286.7182 15.06383051104918","MEAN_MOTION_DDOT":"0.0000000000000","INCLINATION":"53.0533","RA_OF_ASC_NODE":"314.4489","MEAN_ELEMENT_THEORY":"SGP4","PERIOD":"95.593","BSTAR":"-0.00024277000000","TIME_SYSTEM":"UTC","DECAY_DATE":null,"OBJECT_TYPE":"PAYLOAD","MEAN_MOTION_DOT":"-0.00003894","TLE_LINE1":"1 47744U 21017Y   23016.84399501 -.00003894  00000-0 -24277-3 0  9999","ELEMENT_SET_NO":"999","OBJECT_NAME":"STARLINK-2158","EPOCH":"2023-01-16T20:15:21.168864","MEAN_ANOMALY":"286.7182","OBJECT_ID":"2021-017Y","PERIAPSIS":"546.108","ECCENTRICITY":"0.00016720","REV_AT_EPOCH":"10491","CLASSIFICATION_TYPE":"U"},{"CENTER_NAME":"EARTH","REF_FRAME":"TEME","EPHEMERIS_TYPE":"0","RCS_SIZE":"LARGE","SITE":"AFETR","NORAD_CAT_ID":"47745","MEAN_MOTION":"15.06355177","LAUNCH_DATE":"2021-03-04","COUNTRY_CODE":"US","FILE":"3750956","GP_ID":"223250498","APOAPSIS":"548.498","SEMIMAJOR_AXIS":"6925.486","PERIOD":"95.595","RA_OF_ASC_NODE":"324.3559","MEAN_ELEMENT_THEORY":"SGP4","MEAN_MOTION_DDOT":"0.0000000000000","TLE_LINE2":"2 47745  53.0564 324.3559 0001657  81.0394 279.0782 15.06355177104726","INCLINATION":"53.0564","ARG_OF_PERICENTER":"81.0394","DECAY_DATE":null,"OBJECT_TYPE":"PAYLOAD","TIME_SYSTEM":"UTC","BSTAR":"-0.00006145600000","MEAN_MOTION_DOT":"-0.00001196","TLE_LINE1":"1 47745U 21017Z   23016.87721675 -.00001196  00000-0 -61456-4 0  9998","ELEMENT_SET_NO":"999","OBJECT_ID":"2021-017Z","PERIAPSIS":"546.203","OBJECT_NAME":"STARLINK-2159","EPOCH":"2023-01-16T21:03:11.527200","MEAN_ANOMALY":"279.0782","CLASSIFICATION_TYPE":"U","REV_AT_EPOCH":"10472","ECCENTRICITY":"0.00016570"},{"RA_OF_ASC_NODE":"324.3962","MEAN_ELEMENT_THEORY":"SGP4","PERIOD":"95.593","TLE_LINE2":"2 47746  53.0506 324.3962 0001750  71.6886 288.4293 15.06386870104710","INCLINATION":"53.0506","MEAN_MOTION_DDOT":"0.0000000000000","ARG_OF_PERICENTER":"71.6886","COUNTRY_CODE":"US","GP_ID":"223250748","FILE":"3750956","LAUNCH_DATE":"2021-03-04","APOAPSIS":"548.466","SEMIMAJOR_AXIS":"6925.389","SITE":"AFETR","RCS_SIZE":"LARGE","MEAN_MOTION":"15.06386870","NORAD_CAT_ID":"47746","CENTER_NAME":"EARTH","REF_FRAME":"TEME","EPHEMERIS_TYPE":"0","CLASSIFICATION_TYPE":"U","REV_AT_EPOCH":"10471","ECCENTRICITY":"0.00017500","OBJECT_ID":"2021-017AA","PERIAPSIS":"546.042","OBJECT_NAME":"STARLINK-2160","EPOCH":"2023-01-16T20:52:33.041568","MEAN_ANOMALY":"288.4293","TLE_LINE1":"1 47746U 21017AA  23016.86982687 -.00001474  00000-0 -80129-4 0  9997","MEAN_MOTION_DOT":"-0.00001474","ELEMENT_SET_NO":"999","TIME_SYSTEM":"UTC","DECAY_DATE":null,"OBJECT_TYPE":"PAYLOAD","BSTAR":"-0.00008012900000"},{"MEAN_MOTION_DOT":"-0.00003310","TLE_LINE1":"1 47747U 21017AB  23016.86706654 -.00003310  00000-0 -20354-3 0  9990","ELEMENT_SET_NO":"999","BSTAR":"-0.00020354000000","TIME_SYSTEM":"UTC","DECAY_DATE":null,"OBJECT_TYPE":"PAYLOAD","REV_AT_EPOCH":"10489","ECCENTRICITY":"0.00017800","CLASSIFICATION_TYPE":"U","OBJECT_NAME":"STARLINK-2161","EPOCH":"2023-01-16T20:48:34.549056","MEAN_ANOMALY":"275.6018","PERIAPSIS":"546.073","OBJECT_ID":"2021-017AB","MEAN_MOTION":"15.06370017","NORAD_CAT_ID":"47747","SITE":"AFETR","RCS_SIZE":"LARGE","EPHEMERIS_TYPE":"0","CENTER_NAME":"EARTH","REF_FRAME":"TEME","TLE_LINE2":"2 47747  53.0543 314.3872 0001780  84.5174 275.6018 15.06370017104895","MEAN_MOTION_DDOT":"0.0000000000000","INCLINATION":"53.0543","ARG_OF_PERICENTER":"84.5174","RA_OF_ASC_NODE":"314.3872","MEAN_ELEMENT_THEORY":"SGP4","PERIOD":"95.594","APOAPSIS":"548.538","SEMIMAJOR_AXIS":"6925.440","COUNTRY_CODE":"US","FILE":"3750956","GP_ID":"223250995","LAUNCH_DATE":"2021-03-04"},{"CENTER_NAME":"EARTH","REF_FRAME":"TEME","EPHEMERIS_TYPE":"0","SITE":"AFETR","RCS_SIZE":"LARGE","MEAN_MOTION":"15.06377034","NORAD_CAT_ID":"47748","COUNTRY_CODE":"US","FILE":"3750956","GP_ID":"223251750","LAUNCH_DATE":"2021-03-04","APOAPSIS":"548.425","SEMIMAJOR_AXIS":"6925.419","RA_OF_ASC_NODE":"314.4258","MEAN_ELEMENT_THEORY":"SGP4","PERIOD":"95.594","TLE_LINE2":"2 47748  53.0546 314.4258 0001648  78.3627 281.7546 15.06377034104862","MEAN_MOTION_DDOT":"0.0000000000000","INCLINATION":"53.0546","ARG_OF_PERICENTER":"78.3627","TIME_SYSTEM":"UTC","OBJECT_TYPE":"PAYLOAD","DECAY_DATE":null,"BSTAR":"0.00054997000000","MEAN_MOTION_DOT":"0.00007915","TLE_LINE1":"1 47748U 21017AC  23016.85968672  .00007915  00000-0  54997-3 0  9993","ELEMENT_SET_NO":"999","OBJECT_ID":"2021-017AC","PERIAPSIS":"546.143","OBJECT_NAME":"STARLINK-2162","EPOCH":"2023-01-16T20:37:56.932608","MEAN_ANOMALY":"281.7546","CLASSIFICATION_TYPE":"U","ECCENTRICITY":"0.00016480","REV_AT_EPOCH":"10486"}];
